OBJECT B                
1 51825U 22019B   25239.98720131  .00031026  00000+0  69222-3 0  9992
2 51825  97.3796 317.5619 0010837 121.9572 238.2731 15.43446626194137
